{
  "type": "FeatureCollection",
  "features": [
    {
      "type": "Feature",
      "properties": {
        "norad_id": 40069,
        "name": "METEOR-M 2",
        "group": "weather",
        "lat": 68.38283192641745,
        "lon": 163.17868571456592,
        "alt_km": 815.2837883413258,
        "timestamp": "2025-12-09T07:41:32.844762+00:00",
        "meta_object_name": "METEOR-M 2",
        "meta_object_id": "2014-037A",
        "meta_epoch": "2025-12-08T22:43:46.159392",
        "meta_mean_motion": 14.21383093,
        "meta_eccentricity": 0.00048297,
        "meta_inclination": 98.4898,
        "meta_ra_of_asc_node": 320.6765,
        "meta_arg_of_pericenter": 222.5583,
        "meta_mean_anomaly": 137.5221,
        "meta_ephemeris_type": 0,
        "meta_classification_type": "U",
        "meta_norad_cat_id": 40069,
        "meta_element_set_no": 999,
        "meta_rev_at_epoch": 59229,
        "meta_bstar": 5.846312e-06,
        "meta_mean_motion_dot": -2.9e-07,
        "meta_mean_motion_ddot": 0,
        "tle_line1": "1 40069U 14037A   25342.94706203 -.00000029  00000+0  58463-5 0  9993",
        "tle_line2": "2 40069  98.4898 320.6765 0004829 222.5583 137.5221 14.21383093592298"
      },
      "geometry": {
        "type": "Point",
        "coordinates": [
          163.17868571456592,
          68.38283192641745
        ]
      }
    },
    {
      "type": "Feature",
      "properties": {
        "norad_id": 40267,
        "name": "HIMAWARI-8",
        "group": "weather",
        "lat": 0.01763626807214067,
        "lon": -25.632309037664,
        "alt_km": 35782.282727032645,
        "timestamp": "2025-12-09T07:41:32.844774+00:00",
        "meta_object_name": "HIMAWARI-8",
        "meta_object_id": "2014-060A",
        "meta_epoch": "2025-12-08T22:49:55.959168",
        "meta_mean_motion": 1.00270656,
        "meta_eccentricity": 0.0001257,
        "meta_inclination": 0.0331,
        "meta_ra_of_asc_node": 221.8407,
        "meta_arg_of_pericenter": 74.2923,
        "meta_mean_anomaly": 264.9633,
        "meta_ephemeris_type": 0,
        "meta_classification_type": "U",
        "meta_norad_cat_id": 40267,
        "meta_element_set_no": 999,
        "meta_rev_at_epoch": 4085,
        "meta_bstar": 0,
        "meta_mean_motion_dot": -2.73e-06,
        "meta_mean_motion_ddot": 0,
        "tle_line1": "1 40267U 14060A   25342.95134212 -.00000273  00000+0  00000+0 0  9994",
        "tle_line2": "2 40267   0.0331 221.8407 0001257  74.2923 264.9633  1.00270656 40851"
      },
      "geometry": {
        "type": "Point",
        "coordinates": [
          -25.632309037664,
          0.01763626807214067
        ]
      }
    },
    {
      "type": "Feature",
      "properties": {
        "norad_id": 40367,
        "name": "FENGYUN 2G",
        "group": "weather",
        "lat": -3.2056600678793954,
        "lon": -66.78296622939911,
        "alt_km": 35776.114767088424,
        "timestamp": "2025-12-09T07:41:32.844785+00:00",
        "meta_object_name": "FENGYUN 2G",
        "meta_object_id": "2014-090A",
        "meta_epoch": "2025-12-08T17:30:10.330272",
        "meta_mean_motion": 1.00265504,
        "meta_eccentricity": 0.0003085,
        "meta_inclination": 5.1581,
        "meta_ra_of_asc_node": 75.1439,
        "meta_arg_of_pericenter": 197.6958,
        "meta_mean_anomaly": 167.0613,
        "meta_ephemeris_type": 0,
        "meta_classification_type": "U",
        "meta_norad_cat_id": 40367,
        "meta_element_set_no": 999,
        "meta_rev_at_epoch": 4009,
        "meta_bstar": 0,
        "meta_mean_motion_dot": -3e-06,
        "meta_mean_motion_ddot": 0,
        "tle_line1": "1 40367U 14090A   25342.72928623 -.00000300  00000+0  00000+0 0  9991",
        "tle_line2": "2 40367   5.1581  75.1439 0003085 197.6958 167.0613  1.00265504 40092"
      },
      "geometry": {
        "type": "Point",
        "coordinates": [
          -66.78296622939911,
          -3.2056600678793954
        ]
      }
    },
    {
      "type": "Feature",
      "properties": {
        "norad_id": 40732,
        "name": "METEOSAT-11 (MSG-4)",
        "group": "weather",
        "lat": 2.0443536266092988,
        "lon": -156.91727698186708,
        "alt_km": 35783.27364400866,
        "timestamp": "2025-12-09T07:41:32.844797+00:00",
        "meta_object_name": "METEOSAT-11 (MSG-4)",
        "meta_object_id": "2015-034A",
        "meta_epoch": "2025-12-08T22:12:29.543616",
        "meta_mean_motion": 1.00266305,
        "meta_eccentricity": 9.766e-05,
        "meta_inclination": 2.7258,
        "meta_ra_of_asc_node": 72.0129,
        "meta_arg_of_pericenter": 121.5314,
        "meta_mean_anomaly": 226.8584,
        "meta_ephemeris_type": 0,
        "meta_classification_type": "U",
        "meta_norad_cat_id": 40732,
        "meta_element_set_no": 999,
        "meta_rev_at_epoch": 530,
        "meta_bstar": 0,
        "meta_mean_motion_dot": 6.3e-07,
        "meta_mean_motion_ddot": 0,
        "tle_line1": "1 40732U 15034A   25342.92534194  .00000063  00000+0  00000+0 0  9999",
        "tle_line2": "2 40732   2.7258  72.0129 0000976 121.5314 226.8584  1.00266305  5308"
      },
      "geometry": {
        "type": "Point",
        "coordinates": [
          -156.91727698186708,
          2.0443536266092988
        ]
      }
    },
    {
      "type": "Feature",
      "properties": {
        "norad_id": 41105,
        "name": "ELEKTRO-L 2",
        "group": "weather",
        "lat": 5.965475110797942,
        "lon": 179.24623611778594,
        "alt_km": 35786.91068215692,
        "timestamp": "2025-12-09T07:41:32.844809+00:00",
        "meta_object_name": "ELEKTRO-L 2",
        "meta_object_id": "2015-074A",
        "meta_epoch": "2025-12-08T01:32:59.339616",
        "meta_mean_motion": 1.00272095,
        "meta_eccentricity": 0.00038959,
        "meta_inclination": 6.2137,
        "meta_ra_of_asc_node": 72.8831,
        "meta_arg_of_pericenter": 202.1976,
        "meta_mean_anomaly": 170.7351,
        "meta_ephemeris_type": 0,
        "meta_classification_type": "U",
        "meta_norad_cat_id": 41105,
        "meta_element_set_no": 999,
        "meta_rev_at_epoch": 3659,
        "meta_bstar": 0,
        "meta_mean_motion_dot": -1.16e-06,
        "meta_mean_motion_ddot": 0,
        "tle_line1": "1 41105U 15074A   25342.06457569 -.00000116  00000+0  00000+0 0  9993",
        "tle_line2": "2 41105   6.2137  72.8831 0003895 202.1976 170.7351  1.00272095 36596"
      },
      "geometry": {
        "type": "Point",
        "coordinates": [
          179.24623611778594,
          5.965475110797942
        ]
      }
    },
    {
      "type": "Feature",
      "properties": {
        "norad_id": 41752,
        "name": "INSAT-3DR",
        "group": "weather",
        "lat": -0.022469557789354448,
        "lon": -92.3034271099348,
        "alt_km": 35725.036117928226,
        "timestamp": "2025-12-09T07:41:32.844821+00:00",
        "meta_object_name": "INSAT-3DR",
        "meta_object_id": "2016-054A",
        "meta_epoch": "2025-12-08T22:30:57.774816",
        "meta_mean_motion": 1.0027026,
        "meta_eccentricity": 0.00145343,
        "meta_inclination": 0.0828,
        "meta_ra_of_asc_node": 86.7116,
        "meta_arg_of_pericenter": 183.5132,
        "meta_mean_anomaly": 219.4614,
        "meta_ephemeris_type": 0,
        "meta_classification_type": "U",
        "meta_norad_cat_id": 41752,
        "meta_element_set_no": 999,
        "meta_rev_at_epoch": 3391,
        "meta_bstar": 0,
        "meta_mean_motion_dot": -7.5e-07,
        "meta_mean_motion_ddot": 0,
        "tle_line1": "1 41752U 16054A   25342.93816869 -.00000075  00000+0  00000+0 0  9992",
        "tle_line2": "2 41752   0.0828  86.7116 0014534 183.5132 219.4614  1.00270260 33919"
      },
      "geometry": {
        "type": "Point",
        "coordinates": [
          -92.3034271099348,
          -0.022469557789354448
        ]
      }
    },
    {
      "type": "Feature",
      "properties": {
        "norad_id": 41836,
        "name": "HIMAWARI-9",
        "group": "weather",
        "lat": -0.01856682976125309,
        "lon": -25.51512624430202,
        "alt_km": 35784.30203194204,
        "timestamp": "2025-12-09T07:41:32.844834+00:00",
        "meta_object_name": "HIMAWARI-9",
        "meta_object_id": "2016-064A",
        "meta_epoch": "2025-12-08T19:24:34.983072",
        "meta_mean_motion": 1.0027232,
        "meta_eccentricity": 0.00012307,
        "meta_inclination": 0.0202,
        "meta_ra_of_asc_node": 66.6423,
        "meta_arg_of_pericenter": 196.7775,
        "meta_mean_anomaly": 246.3088,
        "meta_ephemeris_type": 0,
        "meta_classification_type": "U",
        "meta_norad_cat_id": 41836,
        "meta_element_set_no": 999,
        "meta_rev_at_epoch": 3330,
        "meta_bstar": 0,
        "meta_mean_motion_dot": -2.72e-06,
        "meta_mean_motion_ddot": 0,
        "tle_line1": "1 41836U 16064A   25342.80873823 -.00000272  00000+0  00000+0 0  9994",
        "tle_line2": "2 41836   0.0202  66.6423 0001230 196.7775 246.3088  1.00272320 33300"
      },
      "geometry": {
        "type": "Point",
        "coordinates": [
          -25.51512624430202,
          -0.01856682976125309
        ]
      }
    }
  ]
}